YAOGAN-35 01A           
1 49390U 21101A   26068.78009532  .00012075  00000+0  47335-3 0  9995
2 49390  34.9903 183.8731 0005688 189.0601 171.0012 15.24952145241689
STARLINK-30460          
1 57870U 23144G   26068.07899087  .00051864  00000+0  19032-2 0  9991
2 57870  43.0032 288.6845 0003778 246.9964 113.0490 15.27189830137550
